start=new Date('2021-10-06T00:00:00.000Z').valueOf();
sats=[{"MEAN_MOTION_DDOT":"0.0000000000000","ELEMENT_SET_NO":"999","DECAY_DATE":null,"MEAN_MOTION":"15.06387167","CLASSIFICATION_TYPE":"U","RA_OF_ASC_NODE":"287.2013","TIME_SYSTEM":"UTC","NORAD_CAT_ID":"47805","OBJECT_TYPE":"PAYLOAD","PERIOD":"95.593","EPHEMERIS_TYPE":"0","PERIAPSIS":"546.658","TLE_LINE1":"1 47805U 21018U   21278.44681151  .00000341  00000-0  41795-4 0  9994","APOAPSIS":"547.848","CENTER_NAME":"EARTH","MEAN_ANOMALY":"272.4039","REF_FRAME":"TEME","SEMIMAJOR_AXIS":"6925.388","GP_ID":"186277367","COUNTRY_CODE":"US","EPOCH":"2021-10-05T10:43:24.514464","MEAN_MOTION_DOT":"0.00000341","ECCENTRICITY":"0.00008590","BSTAR":"0.00004179500000","LAUNCH_DATE":"2021-03-11","TLE_LINE2":"2 47805  53.0550 287.2013 0000859  87.7049 272.4039 15.06387167 33270","FILE":"3145988","RCS_SIZE":"MEDIUM","REV_AT_EPOCH":"3327","MEAN_ELEMENT_THEORY":"SGP4","SITE":"AFETR","ARG_OF_PERICENTER":"87.7049","OBJECT_NAME":"STARLINK-2386","INCLINATION":"53.0550","OBJECT_ID":"2021-018U"},{"OBJECT_ID":"2021-018V","INCLINATION":"53.0564","OBJECT_NAME":"STARLINK-2387","ARG_OF_PERICENTER":"81.1711","SITE":"AFETR","MEAN_ELEMENT_THEORY":"SGP4","REV_AT_EPOCH":"3310","RCS_SIZE":"LARGE","FILE":"3145988","LAUNCH_DATE":"2021-03-11","TLE_LINE2":"2 47806  53.0564 302.6935 0001341  81.1711 278.9429 15.06394142 33109","BSTAR":"0.00009962800000","ECCENTRICITY":"0.00013410","MEAN_MOTION_DOT":"0.00001203","EPOCH":"2021-10-05T08:10:08.134752","COUNTRY_CODE":"US","SEMIMAJOR_AXIS":"6925.367","GP_ID":"186276115","REF_FRAME":"TEME","MEAN_ANOMALY":"278.9429","APOAPSIS":"548.160","CENTER_NAME":"EARTH","TLE_LINE1":"1 47806U 21018V   21278.34037193  .00001203  00000-0  99628-4 0  9991","PERIAPSIS":"546.303","EPHEMERIS_TYPE":"0","PERIOD":"95.593","OBJECT_TYPE":"PAYLOAD","NORAD_CAT_ID":"47806","TIME_SYSTEM":"UTC","CLASSIFICATION_TYPE":"U","RA_OF_ASC_NODE":"302.6935","MEAN_MOTION":"15.06394142","ELEMENT_SET_NO":"999","DECAY_DATE":null,"MEAN_MOTION_DDOT":"0.0000000000000"},{"TIME_SYSTEM":"UTC","NORAD_CAT_ID":"47807","OBJECT_TYPE":"PAYLOAD","MEAN_MOTION":"15.06396241","CLASSIFICATION_TYPE":"U","RA_OF_ASC_NODE":"277.1811","ELEMENT_SET_NO":"999","DECAY_DATE":null,"MEAN_MOTION_DDOT":"0.0000000000000","MEAN_ANOMALY":"285.9597","REF_FRAME":"TEME","GP_ID":"186276365","SEMIMAJOR_AXIS":"6925.360","PERIAPSIS":"546.776","TLE_LINE1":"1 47807U 21018W   21278.46341213  .00000946  00000-0  82400-4 0  9999","APOAPSIS":"547.675","CENTER_NAME":"EARTH","PERIOD":"95.592","EPHEMERIS_TYPE":"0","REV_AT_EPOCH":"3340","RCS_SIZE":"LARGE","MEAN_ELEMENT_THEORY":"SGP4","TLE_LINE2":"2 47807  53.0452 277.1811 0000649  74.1464 285.9597 15.06396241 33401","LAUNCH_DATE":"2021-03-11","FILE":"3145988","BSTAR":"0.00008240000000","COUNTRY_CODE":"US","EPOCH":"2021-10-05T11:07:18.808032","MEAN_MOTION_DOT":"0.00000946","ECCENTRICITY":"0.00006490","INCLINATION":"53.0452","OBJECT_ID":"2021-018W","OBJECT_NAME":"STARLINK-2388","SITE":"AFETR","ARG_OF_PERICENTER":"74.1464"},{"APOAPSIS":"547.979","CENTER_NAME":"EARTH","TLE_LINE1":"1 47808U 21018X   21278.35880961 -.00000614  00000-0 -22334-4 0  9990","PERIAPSIS":"546.516","SEMIMAJOR_AXIS":"6925.383","GP_ID":"186277117","REF_FRAME":"TEME","MEAN_ANOMALY":"270.2310","EPHEMERIS_TYPE":"0","PERIOD":"95.593","CLASSIFICATION_TYPE":"U","RA_OF_ASC_NODE":"302.6052","MEAN_MOTION":"15.06388920","OBJECT_TYPE":"PAYLOAD","NORAD_CAT_ID":"47808","TIME_SYSTEM":"UTC","MEAN_MOTION_DDOT":"0.0000000000000","ELEMENT_SET_NO":"999","DECAY_DATE":null,"OBJECT_ID":"2021-018X","INCLINATION":"53.0551","ARG_OF_PERICENTER":"89.8800","SITE":"AFETR","OBJECT_NAME":"STARLINK-2389","FILE":"3145988","TLE_LINE2":"2 47808  53.0551 302.6052 0001056  89.8800 270.2310 15.06388920 33105","LAUNCH_DATE":"2021-03-11","MEAN_ELEMENT_THEORY":"SGP4","RCS_SIZE":"LARGE","REV_AT_EPOCH":"3310","ECCENTRICITY":"0.00010560","MEAN_MOTION_DOT":"-0.00000614","EPOCH":"2021-10-05T08:36:41.150304","COUNTRY_CODE":"US","BSTAR":"-0.00002233400000"},{"PERIAPSIS":"546.378","APOAPSIS":"548.107","CENTER_NAME":"EARTH","TLE_LINE1":"1 47809U 21018Y   21278.43116964  .00000154  00000-0  29227-4 0  9990","REF_FRAME":"TEME","MEAN_ANOMALY":"278.5757","GP_ID":"186277867","SEMIMAJOR_AXIS":"6925.378","PERIOD":"95.593","EPHEMERIS_TYPE":"0","MEAN_MOTION":"15.06390474","RA_OF_ASC_NODE":"307.2743","CLASSIFICATION_TYPE":"U","NORAD_CAT_ID":"47809","TIME_SYSTEM":"UTC","OBJECT_TYPE":"PAYLOAD","MEAN_MOTION_DDOT":"0.0000000000000","ELEMENT_SET_NO":"999","DECAY_DATE":null,"OBJECT_ID":"2021-018Y","INCLINATION":"53.0553","ARG_OF_PERICENTER":"81.5373","SITE":"AFETR","OBJECT_NAME":"STARLINK-2390","LAUNCH_DATE":"2021-03-11","TLE_LINE2":"2 47809  53.0553 307.2743 0001248  81.5373 278.5757 15.06390474 33049","FILE":"3145988","REV_AT_EPOCH":"3304","RCS_SIZE":"LARGE","MEAN_ELEMENT_THEORY":"SGP4","EPOCH":"2021-10-05T10:20:53.056896","COUNTRY_CODE":"US","ECCENTRICITY":"0.00012480","MEAN_MOTION_DOT":"0.00000154","BSTAR":"0.00002922700000"},{"INCLINATION":"53.0554","OBJECT_ID":"2021-018Z","OBJECT_NAME":"STARLINK-2391","SITE":"AFETR","ARG_OF_PERICENTER":"75.2967","MEAN_ELEMENT_THEORY":"SGP4","RCS_SIZE":"LARGE","REV_AT_EPOCH":"3289","FILE":"3145988","LAUNCH_DATE":"2021-03-11","TLE_LINE2":"2 47810  53.0554 317.4801 0001426  75.2967 284.8180 15.06394674 32895","BSTAR":"0.00005201100000","MEAN_MOTION_DOT":"0.00000493","ECCENTRICITY":"0.00014260","COUNTRY_CODE":"US","EPOCH":"2021-10-05T09:21:09.601344","GP_ID":"186276615","SEMIMAJOR_AXIS":"6925.365","MEAN_ANOMALY":"284.8180","REF_FRAME":"TEME","TLE_LINE1":"1 47810U 21018Z   21278.38969446  .00000493  00000-0  52011-4 0  9990","APOAPSIS":"548.217","CENTER_NAME":"EARTH","PERIAPSIS":"546.242","EPHEMERIS_TYPE":"0","PERIOD":"95.592","OBJECT_TYPE":"PAYLOAD","TIME_SYSTEM":"UTC","NORAD_CAT_ID":"47810","RA_OF_ASC_NODE":"317.4801","CLASSIFICATION_TYPE":"U","MEAN_MOTION":"15.06394674","DECAY_DATE":null,"ELEMENT_SET_NO":"999","MEAN_MOTION_DDOT":"0.0000000000000"},{"EPHEMERIS_TYPE":"0","PERIOD":"95.593","APOAPSIS":"547.992","CENTER_NAME":"EARTH","TLE_LINE1":"1 47811U 21018AA  21278.29661868  .00000901  00000-0  79397-4 0  9998","PERIAPSIS":"546.471","SEMIMAJOR_AXIS":"6925.366","GP_ID":"186276865","REF_FRAME":"TEME","MEAN_ANOMALY":"275.3990","MEAN_MOTION_DDOT":"0.0000000000000","DECAY_DATE":null,"ELEMENT_SET_NO":"999","RA_OF_ASC_NODE":"287.8782","CLASSIFICATION_TYPE":"U","MEAN_MOTION":"15.06394257","OBJECT_TYPE":"PAYLOAD","NORAD_CAT_ID":"47811","TIME_SYSTEM":"UTC","ARG_OF_PERICENTER":"84.7124","SITE":"AFETR","OBJECT_NAME":"STARLINK-2392","OBJECT_ID":"2021-018AA","INCLINATION":"53.0556","ECCENTRICITY":"0.00010980","MEAN_MOTION_DOT":"0.00000901","EPOCH":"2021-10-05T07:07:07.853952","COUNTRY_CODE":"US","BSTAR":"0.00007939700000","FILE":"3145988","LAUNCH_DATE":"2021-03-11","TLE_LINE2":"2 47811  53.0556 287.8782 0001098  84.7124 275.3990 15.06394257 33309","MEAN_ELEMENT_THEORY":"SGP4","RCS_SIZE":"LARGE","REV_AT_EPOCH":"3330"},{"OBJECT_ID":"2021-018AB","INCLINATION":"53.0548","ARG_OF_PERICENTER":"78.3548","SITE":"AFETR","OBJECT_NAME":"STARLINK-2393","FILE":"3145988","TLE_LINE2":"2 47812  53.0548 317.4106 0001102  78.3548 281.7565 15.06388088 32837","LAUNCH_DATE":"2021-03-11","MEAN_ELEMENT_THEORY":"SGP4","RCS_SIZE":"LARGE","REV_AT_EPOCH":"3283","ECCENTRICITY":"0.00011020","MEAN_MOTION_DOT":"-0.00000805","EPOCH":"2021-10-05T09:37:05.646720","COUNTRY_CODE":"US","BSTAR":"-0.00003520200000","APOAPSIS":"548.013","CENTER_NAME":"EARTH","TLE_LINE1":"1 47812U 21018AB  21278.40075980 -.00000805  00000-0 -35202-4 0  9998","PERIAPSIS":"546.487","GP_ID":"186277617","SEMIMAJOR_AXIS":"6925.385","REF_FRAME":"TEME","MEAN_ANOMALY":"281.7565","EPHEMERIS_TYPE":"0","PERIOD":"95.593","CLASSIFICATION_TYPE":"U","RA_OF_ASC_NODE":"317.4106","MEAN_MOTION":"15.06388088","OBJECT_TYPE":"PAYLOAD","NORAD_CAT_ID":"47812","TIME_SYSTEM":"UTC","MEAN_MOTION_DDOT":"0.0000000000000","DECAY_DATE":null,"ELEMENT_SET_NO":"999"},{"GP_ID":"186277368","SEMIMAJOR_AXIS":"6925.362","REF_FRAME":"TEME","MEAN_ANOMALY":"283.5830","CENTER_NAME":"EARTH","APOAPSIS":"547.668","TLE_LINE1":"1 47813U 21018AC  21278.31874482 -.00000216  00000-0  43862-5 0  9990","PERIAPSIS":"546.785","EPHEMERIS_TYPE":"0","PERIOD":"95.592","OBJECT_TYPE":"PAYLOAD","NORAD_CAT_ID":"47813","TIME_SYSTEM":"UTC","RA_OF_ASC_NODE":"287.7860","CLASSIFICATION_TYPE":"U","MEAN_MOTION":"15.06395754","DECAY_DATE":null,"ELEMENT_SET_NO":"999","MEAN_MOTION_DDOT":"0.0000000000000","OBJECT_ID":"2021-018AC","INCLINATION":"53.0569","OBJECT_NAME":"STARLINK-2394","ARG_OF_PERICENTER":"76.5230","SITE":"AFETR","MEAN_ELEMENT_THEORY":"SGP4","REV_AT_EPOCH":"3330","RCS_SIZE":"LARGE","FILE":"3145988","TLE_LINE2":"2 47813  53.0569 287.7860 0000637  76.5230 283.5830 15.06395754 33303","LAUNCH_DATE":"2021-03-11","BSTAR":"0.00000438620000","ECCENTRICITY":"0.00006370","MEAN_MOTION_DOT":"-0.00000216","EPOCH":"2021-10-05T07:38:59.552448","COUNTRY_CODE":"US"},{"EPOCH":"2021-10-05T09:49:02.048736","COUNTRY_CODE":"US","ECCENTRICITY":"0.00013580","MEAN_MOTION_DOT":"0.00002403","BSTAR":"0.00018019000000","TLE_LINE2":"2 47814  53.0549 307.3885 0001358  82.3536 277.7608 15.06394238 33048","LAUNCH_DATE":"2021-03-11","FILE":"3145988","RCS_SIZE":"MEDIUM","REV_AT_EPOCH":"3304","MEAN_ELEMENT_THEORY":"SGP4","ARG_OF_PERICENTER":"82.3536","SITE":"AFETR","OBJECT_NAME":"STARLINK-2395","OBJECT_ID":"2021-018AD","INCLINATION":"53.0549","MEAN_MOTION_DDOT":"0.0000000000000","ELEMENT_SET_NO":"999","DECAY_DATE":null,"MEAN_MOTION":"15.06394238","CLASSIFICATION_TYPE":"U","RA_OF_ASC_NODE":"307.3885","NORAD_CAT_ID":"47814","TIME_SYSTEM":"UTC","OBJECT_TYPE":"PAYLOAD","PERIOD":"95.593","EPHEMERIS_TYPE":"0","PERIAPSIS":"546.291","CENTER_NAME":"EARTH","APOAPSIS":"548.172","TLE_LINE1":"1 47814U 21018AD  21278.40905149  .00002403  00000-0  18019-3 0  9999","REF_FRAME":"TEME","MEAN_ANOMALY":"277.7608","GP_ID":"186276116","SEMIMAJOR_AXIS":"6925.366"}];
